[
    {
        "OBJECT_NAME": "COSMOS 1594 [GLONASS]",
        "OBJECT_ID": "1984-095B",
        "EPOCH": "2025-04-12T06:20:44.801088",
        "MEAN_MOTION": 2.12637103,
        "ECCENTRICITY": 0.0004598,
        "INCLINATION": 64.5525,
        "RA_OF_ASC_NODE": 89.3071,
        "ARG_OF_PERICENTER": 196.5775,
        "MEAN_ANOMALY": 253.8937,
        "EPHEMERIS_TYPE": 0,
        "CLASSIFICATION_TYPE": "U",
        "NORAD_CAT_ID": 15260,
        "ELEMENT_SET_NO": 999,
        "REV_AT_EPOCH": 31533,
        "BSTAR": 0,
        "MEAN_MOTION_DOT": 2.8e-07,
        "MEAN_MOTION_DDOT": 0
    },
    {
        "OBJECT_NAME": "COSMOS 1595 [GLONASS]",
        "OBJECT_ID": "1984-095C",
        "EPOCH": "2025-04-12T10:48:02.822688",
        "MEAN_MOTION": 2.13101946,
        "ECCENTRICITY": 0.0048289,
        "INCLINATION": 64.5619,
        "RA_OF_ASC_NODE": 86.039,
        "ARG_OF_PERICENTER": 218.5985,
        "MEAN_ANOMALY": 334.6435,
        "EPHEMERIS_TYPE": 0,
        "CLASSIFICATION_TYPE": "U",
        "NORAD_CAT_ID": 15261,
        "ELEMENT_SET_NO": 999,
        "REV_AT_EPOCH": 29034,
        "BSTAR": 0,
        "MEAN_MOTION_DOT": 2e-07,
        "MEAN_MOTION_DDOT": 0
    },
    {
        "OBJECT_NAME": "COSMOS 1650 [GLONASS]",
        "OBJECT_ID": "1985-037A",
        "EPOCH": "2025-04-11T09:41:16.153152",
        "MEAN_MOTION": 2.13102304,
        "ECCENTRICITY": 0.0032631,
        "INCLINATION": 64.6484,
        "RA_OF_ASC_NODE": 88.0979,
        "ARG_OF_PERICENTER": 26.7102,
        "MEAN_ANOMALY": 161.5411,
        "EPHEMERIS_TYPE": 0,
        "CLASSIFICATION_TYPE": "U",
        "NORAD_CAT_ID": 15697,
        "ELEMENT_SET_NO": 999,
        "REV_AT_EPOCH": 28709,
        "BSTAR": 0,
        "MEAN_MOTION_DOT": 3.1e-07,
        "MEAN_MOTION_DDOT": 0
    },
    {
        "OBJECT_NAME": "COSMOS 1651 [GLONASS]",
        "OBJECT_ID": "1985-037B",
        "EPOCH": "2025-04-12T07:58:52.010688",
        "MEAN_MOTION": 2.13123173,
        "ECCENTRICITY": 0.0014737,
        "INCLINATION": 64.6382,
        "RA_OF_ASC_NODE": 87.6265,
        "ARG_OF_PERICENTER": 21.618,
        "MEAN_ANOMALY": 150.7469,
        "EPHEMERIS_TYPE": 0,
        "CLASSIFICATION_TYPE": "U",
        "NORAD_CAT_ID": 15698,
        "ELEMENT_SET_NO": 999,
        "REV_AT_EPOCH": 31060,
        "BSTAR": 0,
        "MEAN_MOTION_DOT": 2.4e-07,
        "MEAN_MOTION_DDOT": 0
    },
    {
        "OBJECT_NAME": "COSMOS 1652 [GLONASS]",
        "OBJECT_ID": "1985-037C",
        "EPOCH": "2025-04-13T07:33:50.359680",
        "MEAN_MOTION": 2.13067426,
        "ECCENTRICITY": 0.0018075,
        "INCLINATION": 64.6334,
        "RA_OF_ASC_NODE": 87.8778,
        "ARG_OF_PERICENTER": 24.2363,
        "MEAN_ANOMALY": 90.5726,
        "EPHEMERIS_TYPE": 0,
        "CLASSIFICATION_TYPE": "U",
        "NORAD_CAT_ID": 15699,
        "ELEMENT_SET_NO": 999,
        "REV_AT_EPOCH": 31050,
        "BSTAR": 0,
        "MEAN_MOTION_DOT": 2.1e-07,
        "MEAN_MOTION_DDOT": 0
    },
    {
        "OBJECT_NAME": "COSMOS 1711 [GLONASS]",
        "OBJECT_ID": "1985-118B",
        "EPOCH": "2025-04-12T09:55:04.203840",
        "MEAN_MOTION": 2.13101707,
        "ECCENTRICITY": 0.0008204,
        "INCLINATION": 66.2482,
        "RA_OF_ASC_NODE": 338.6806,
        "ARG_OF_PERICENTER": 189.1138,
        "MEAN_ANOMALY": 21.2442,
        "EPHEMERIS_TYPE": 0,
        "CLASSIFICATION_TYPE": "U",
        "NORAD_CAT_ID": 16397,
        "ELEMENT_SET_NO": 999,
        "REV_AT_EPOCH": 30557,
        "BSTAR": 0,
        "MEAN_MOTION_DOT": -5.8e-07,
        "MEAN_MOTION_DDOT": 0
    },
    {
        "OBJECT_NAME": "COSMOS 1712 [GLONASS]",
        "OBJECT_ID": "1985-118C",
        "EPOCH": "2025-04-07T07:33:23.612832",
        "MEAN_MOTION": 2.12919783,
        "ECCENTRICITY": 0.0011193,
        "INCLINATION": 66.2432,
        "RA_OF_ASC_NODE": 339.4215,
        "ARG_OF_PERICENTER": 17.4929,
        "MEAN_ANOMALY": 168.3915,
        "EPHEMERIS_TYPE": 0,
        "CLASSIFICATION_TYPE": "U",
        "NORAD_CAT_ID": 16398,
        "ELEMENT_SET_NO": 999,
        "REV_AT_EPOCH": 30551,
        "BSTAR": 0,
        "MEAN_MOTION_DOT": -7.1e-07,
        "MEAN_MOTION_DDOT": 0
    },
    {
        "OBJECT_NAME": "COSMOS 1778 [GLONASS]",
        "OBJECT_ID": "1986-071A",
        "EPOCH": "2025-04-13T05:54:40.358016",
        "MEAN_MOTION": 2.13102267,
        "ECCENTRICITY": 0.000498,
        "INCLINATION": 64.653,
        "RA_OF_ASC_NODE": 87.0876,
        "ARG_OF_PERICENTER": 236.5674,
        "MEAN_ANOMALY": 265.6233,
        "EPHEMERIS_TYPE": 0,
        "CLASSIFICATION_TYPE": "U",
        "NORAD_CAT_ID": 16961,
        "ELEMENT_SET_NO": 999,
        "REV_AT_EPOCH": 30021,
        "BSTAR": 0,
        "MEAN_MOTION_DOT": 2e-07,
        "MEAN_MOTION_DDOT": 0
    },
    {
        "OBJECT_NAME": "COSMOS 1779 [GLONASS]",
        "OBJECT_ID": "1986-071B",
        "EPOCH": "2025-04-13T03:07:29.855424",
        "MEAN_MOTION": 2.13102961,
        "ECCENTRICITY": 0.0012538,
        "INCLINATION": 64.6562,
        "RA_OF_ASC_NODE": 87.1637,
        "ARG_OF_PERICENTER": 37.8082,
        "MEAN_ANOMALY": 65.79,
        "EPHEMERIS_TYPE": 0,
        "CLASSIFICATION_TYPE": "U",
        "NORAD_CAT_ID": 16962,
        "ELEMENT_SET_NO": 999,
        "REV_AT_EPOCH": 30008,
        "BSTAR": 0,
        "MEAN_MOTION_DOT": 2e-07,
        "MEAN_MOTION_DDOT": 0
    },
    {
        "OBJECT_NAME": "COSMOS 1780 [GLONASS]",
        "OBJECT_ID": "1986-071C",
        "EPOCH": "2025-04-12T06:41:38.575680",
        "MEAN_MOTION": 2.13107819,
        "ECCENTRICITY": 0.000387,
        "INCLINATION": 64.6449,
        "RA_OF_ASC_NODE": 86.9048,
        "ARG_OF_PERICENTER": 328.7703,
        "MEAN_ANOMALY": 216.9511,
        "EPHEMERIS_TYPE": 0,
        "CLASSIFICATION_TYPE": "U",
        "NORAD_CAT_ID": 16963,
        "ELEMENT_SET_NO": 999,
        "REV_AT_EPOCH": 30014,
        "BSTAR": 0,
        "MEAN_MOTION_DOT": 2.3e-07,
        "MEAN_MOTION_DDOT": 0
    },
    {
        "OBJECT_NAME": "COSMOS 1883 [GLONASS]",
        "OBJECT_ID": "1987-079A",
        "EPOCH": "2025-04-09T14:01:38.530272",
        "MEAN_MOTION": 2.13101206,
        "ECCENTRICITY": 0.0005023,
        "INCLINATION": 65.8117,
        "RA_OF_ASC_NODE": 333.2925,
        "ARG_OF_PERICENTER": 250.695,
        "MEAN_ANOMALY": 296.9518,
        "EPHEMERIS_TYPE": 0,
        "CLASSIFICATION_TYPE": "U",
        "NORAD_CAT_ID": 18355,
        "ELEMENT_SET_NO": 999,
        "REV_AT_EPOCH": 29239,
        "BSTAR": 0,
        "MEAN_MOTION_DOT": -5.4e-07,
        "MEAN_MOTION_DDOT": 0
    },
    {
        "OBJECT_NAME": "COSMOS 1884 [GLONASS]",
        "OBJECT_ID": "1987-079B",
        "EPOCH": "2025-04-12T06:31:58.412640",
        "MEAN_MOTION": 2.131028,
        "ECCENTRICITY": 0.0018779,
        "INCLINATION": 65.8362,
        "RA_OF_ASC_NODE": 333.5382,
        "ARG_OF_PERICENTER": 206.4923,
        "MEAN_ANOMALY": 318.7354,
        "EPHEMERIS_TYPE": 0,
        "CLASSIFICATION_TYPE": "U",
        "NORAD_CAT_ID": 18356,
        "ELEMENT_SET_NO": 999,
        "REV_AT_EPOCH": 29248,
        "BSTAR": 0,
        "MEAN_MOTION_DOT": -5.2e-07,
        "MEAN_MOTION_DDOT": 0
    }
]