16397,COSMOS 1711 [GLONASS],1985,675.73,-1.0,-,66.25,Inactive,0,MEO,Kazakhstan,Russia/USSR,Unknown,Unknown,Unknown,1 16397U 85118B   25102.41324310 -.00000058  00000+0  00000+0 0  9999,2 16397  66.2482 338.6806 0008204 189.1138  21.2442  2.13101707305572,2.13101707,0.0008204,MEO
16398,COSMOS 1712 [GLONASS],1985,676.31,-1.0,-,66.24,Inactive,0,MEO,Kazakhstan,Russia/USSR,Unknown,Unknown,Unknown,1 16398U 85118C   25097.31485663 -.00000071  00000+0  00000+0 0  9996,2 16398  66.2432 339.4215 0011193  17.4929 168.3915  2.12919783305515,2.12919783,0.0011193,MEO
16961,COSMOS 1778 [GLONASS],1986,675.73,-1.0,-,64.65,Inactive,0,MEO,Kazakhstan,Russia/USSR,Unknown,Unknown,Unknown,1 16961U 86071A   25103.24630044  .00000020  00000+0  00000+0 0  9999,2 16961  64.6530  87.0876 0004980 236.5674 265.6233  2.13102267300216,2.13102267,0.000498,MEO
16962,COSMOS 1779 [GLONASS],1986,675.73,-1.0,-,64.66,Inactive,0,MEO,Kazakhstan,Russia/USSR,Unknown,Unknown,Unknown,1 16962U 86071B   25103.13020666  .00000020  00000+0  00000+0 0  9991,2 16962  64.6562  87.1637 0012538  37.8082  65.7900  2.13102961300087,2.13102961,0.0012538,MEO
16963,COSMOS 1780 [GLONASS],1986,675.71,-1.0,-,64.64,Inactive,0,MEO,Kazakhstan,Russia/USSR,Unknown,Unknown,Unknown,1 16963U 86071C   25102.27891870  .00000023  00000+0  00000+0 0  9992,2 16963  64.6449  86.9048 0003870 328.7703 216.9511  2.13107819300148,2.13107819,0.000387,MEO
18355,COSMOS 1883 [GLONASS],1987,675.74,-1.0,-,65.81,Inactive,0,MEO,Kazakhstan,Russia/USSR,Unknown,Unknown,Unknown,1 18355U 87079A   25099.58447373 -.00000054  00000+0  00000+0 0  9997,2 18355  65.8117 333.2925 0005023 250.6950 296.9518  2.13101206292397,2.13101206,0.0005023,MEO
18356,COSMOS 1884 [GLONASS],1987,675.73,-1.0,-,65.84,Inactive,0,MEO,Kazakhstan,Russia/USSR,Unknown,Unknown,Unknown,1 18356U 87079B   25102.27220385 -.00000052  00000+0  00000+0 0  9999,2 18356  65.8362 333.5382 0018779 206.4923 318.7354  2.13102800292483,2.131028,0.0018779,MEO
15260,COSMOS 1594 [GLONASS],1984,677.21,-1.0,-,64.55,Inactive,0,MEO,Kazakhstan,Russia/USSR,Unknown,Unknown,Unknown,1 15260U 84095B   25102.26440742  .00000028  00000+0  00000+0 0  9997,2 15260  64.5525  89.3071 0004598 196.5775 253.8937  2.12637103315334,2.12637103,0.0004598,MEO
15261,COSMOS 1595 [GLONASS],1984,675.73,-1.0,-,64.56,Inactive,0,MEO,Kazakhstan,Russia/USSR,Unknown,Unknown,Unknown,1 15261U 84095C   25102.45003267  .00000020  00000+0  00000+0 0  9998,2 15261  64.5619  86.0390 0048289 218.5985 334.6435  2.13101946290346,2.13101946,0.0048289,MEO
15697,COSMOS 1650 [GLONASS],1985,675.73,-1.0,-,64.65,Inactive,0,MEO,Kazakhstan,Russia/USSR,Unknown,Unknown,Unknown,1 15697U 85037A   25101.40365918  .00000031  00000+0  00000+0 0  9998,2 15697  64.6484  88.0979 0032631  26.7102 161.5411  2.13102304287097,2.13102304,0.0032631,MEO
15698,COSMOS 1651 [GLONASS],1985,675.67,-1.0,-,64.64,Inactive,0,MEO,Kazakhstan,Russia/USSR,Unknown,Unknown,Unknown,1 15698U 85037B   25102.33254642  .00000024  00000+0  00000+0 0  9995,2 15698  64.6382  87.6265 0014737  21.6180 150.7469  2.13123173310609,2.13123173,0.0014737,MEO
15699,COSMOS 1652 [GLONASS],1985,675.84,-1.0,-,64.63,Inactive,0,MEO,Kazakhstan,Russia/USSR,Unknown,Unknown,Unknown,1 15699U 85037C   25103.31516620  .00000021  00000+0  00000+0 0  9999,2 15699  64.6334  87.8778 0018075  24.2363  90.5726  2.13067426310503,2.13067426,0.0018075,MEO
